NORAD_CAT_ID,OBJECT_NAME,OBJECT_TYPE,EPOCH,MEAN_MOTION,ECCENTRICITY,INCLINATION,RA_OF_ASC_NODE,ARG_OF_PERICENTER,MEAN_ANOMALY,BSTAR,MEAN_MOTION_DOT,MEAN_MOTION_DDOT,TLE_LINE0,TLE_LINE1,TLE_LINE2,SEMIMAJOR_AXIS,PERIOD,APOGEE,PERIGEE,DECAYED
52369.0,STARLINK-3841,PAYLOAD,2023-01-13 15:47:46,15.08841181,0.0002623,53.219,316.308,24.2475,335.86400000000003,-2.6351e-06,-3.3e-06,0.0,0 STARLINK-3841,1 52369U 22045AQ  23013.65817697 -.00000330  00000-0 -26351-5 0  9996,2 52369  53.2190 316.3080 0002623  24.2475 335.8640 15.08841181 42153,6917.877,95.437,541.556,537.927,0.0
52369.0,STARLINK-3841,PAYLOAD,2023-01-14 06:06:14,15.08842905,0.0002455,53.2173,313.6287,27.616,332.4962,0.00027673,4.119e-05,0.0,0 STARLINK-3841,1 52369U 22045AQ  23014.25432940  .00004119  00000-0  27673-3 0  9990,2 52369  53.2173 313.6287 0002455  27.6160 332.4962 15.08842905 42249,6917.871999999999,95.437,541.435,538.038,0.0
52369.0,STARLINK-3841,PAYLOAD,2023-01-14 12:27:48,15.08817976,0.0002698,53.2187,312.4428,17.8354,342.2733,-0.00020097,-3.484e-05,0.0,0 STARLINK-3841,1 52369U 22045AQ  23014.51931700 -.00003484  00000-0 -20097-3 0  9996,2 52369  53.2187 312.4428 0002698  17.8354 342.2733 15.08817976 42282,6917.948,95.439,541.679,537.946,0.0
52369.0,STARLINK-3841,PAYLOAD,2023-01-15 02:46:17,15.08814625,0.0002692,53.2191,309.765,21.4342,338.6762,-0.00011766,-2.159e-05,0.0,0 STARLINK-3841,1 52369U 22045AQ  23015.11548483 -.00002159  00000-0 -11766-3 0  9996,2 52369  53.2191 309.7650 0002692  21.4342 338.6762 15.08814625 42374,6917.9580000000005,95.439,541.685,537.961,0.0
52369.0,STARLINK-3841,PAYLOAD,2023-01-16 02:37:02,15.08865818,0.0002762,53.2167,305.3074,27.0501,333.0634,0.00057505,8.882e-05,0.0,0 STARLINK-3841,1 52369U 22045AQ  23016.10905751  .00008882  00000-0  57505-3 0  9999,2 52369  53.2167 305.3074 0002762  27.0501 333.0634 15.08865818 42520,6917.801,95.436,541.577,537.756,0.0
52369.0,STARLINK-3841,PAYLOAD,2023-01-16 12:09:21,15.08846986,0.0002133999999999,53.2173,303.5193,34.4528,325.6602,0.00014029,1.946e-05,0.0,0 STARLINK-3841,1 52369U 22045AQ  23016.50650310  .00001946  00000-0  14029-3 0  9999,2 52369  53.2173 303.5193 0002134  34.4528 325.6602 15.08846986 42586,6917.859,95.437,541.2,538.248,0.0
52369.0,STARLINK-3841,PAYLOAD,2023-01-16 23:17:06,15.08802403,0.0002328,53.2168,301.438,41.8506,318.2664,-0.00018372,-3.208e-05,0.0,0 STARLINK-3841,1 52369U 22045AQ  23016.97021666 -.00003208  00000-0 -18372-3 0  9996,2 52369  53.2168 301.4380 0002328  41.8506 318.2664 15.08802403 42658,6917.995,95.44,541.471,538.25,0.0
52369.0,STARLINK-3841,PAYLOAD,2023-01-17 12:00:11,15.0882239,0.0001959,53.2168,299.0597,45.2064,314.9088,-0.00013605,-2.452e-05,0.0,0 STARLINK-3841,1 52369U 22045AQ  23017.50013161 -.00002452  00000-0 -13605-3 0  9991,2 52369  53.2168 299.0597 0001959  45.2064 314.9088 15.08822390 42735,6917.934,95.439,541.154,538.444,0.0
52369.0,STARLINK-3841,PAYLOAD,2023-01-18 00:43:15,15.08843075,0.0001928,53.2169,296.6826,55.1136,305.0037,-5.4349e-05,-1.153e-05,0.0,0 STARLINK-3841,1 52369U 22045AQ  23018.03004591 -.00001153  00000-0 -54349-4 0  9995,2 52369  53.2169 296.6826 0001928  55.1136 305.0037 15.08843075 42817,6917.871,95.437,541.07,538.4019999999999,0.0
52369.0,STARLINK-3841,PAYLOAD,2023-01-18 11:50:58,15.08849676,0.0001904,53.2164,294.5985,52.8552,307.2614,0.00053418,8.226e-05,0.0,0 STARLINK-3841,1 52369U 22045AQ  23018.49372894  .00008226  00000-0  53418-3 0  9990,2 52369  53.2164 294.5985 0001904  52.8552 307.2614 15.08849676 42880,6917.851,95.437,541.033,538.399,0.0
52369.0,STARLINK-3841,PAYLOAD,2023-01-18 19:47:54,15.0884783,0.0001773,53.2155,293.1124,58.4808,301.6357,0.00063284,9.8e-05,0.0,0 STARLINK-3841,1 52369U 22045AQ  23018.82493193  .00009800  00000-0  63284-3 0  9994,2 52369  53.2155 293.1124 0001773  58.4808 301.6357 15.08847830 42938,6917.856,95.437,540.948,538.495,0.0
52369.0,STARLINK-3841,PAYLOAD,2023-01-19 02:09:25,15.08878551,0.0001733,53.2159,291.9228,65.1855,294.9317,0.0011994,0.00018872,0.0,0 STARLINK-3841,1 52369U 22045AQ  23019.08988258  .00018872  00000-0  11994-2 0  9993,2 52369  53.2159 291.9228 0001733  65.1855 294.9317 15.08878551 42974,6917.763000000001,95.435,540.826,538.429,0.0
52369.0,STARLINK-3841,PAYLOAD,2023-01-19 18:03:17,15.08846755,0.0001514,53.2169,288.9477,75.551,284.565,0.00035712,5.401e-05,0.0,0 STARLINK-3841,1 52369U 22045AQ  23019.75228785  .00005401  00000-0  35712-3 0  9998,2 52369  53.2169 288.9477 0001514  75.5510 284.5650 15.08846755 43075,6917.86,95.437,540.7719999999999,538.677,0.0
52369.0,STARLINK-3841,PAYLOAD,2023-01-20 00:24:50,15.08831868,0.000144,53.216,287.7605,81.7649,278.3506,0.0017715,0.00028012,0.0,0 STARLINK-3841,1 52369U 22045AQ  23020.01725164  .00028012  00000-0  17715-2 0  9997,2 52369  53.2160 287.7605 0001440  81.7649 278.3506 15.08831868 43111,6917.905,95.438,540.766,538.774,0.0
52369.0,STARLINK-3841,PAYLOAD,2023-01-20 22:40:14,15.08862438,0.000122,53.2157,283.5973,77.6949,282.418,0.0021774,0.00034557,0.0,0 STARLINK-3841,1 52369U 22045AQ  23020.94461672  .00034557  00000-0  21774-2 0  9991,2 52369  53.2157 283.5973 0001220  77.6949 282.4180 15.08862438 43258,6917.812,95.436,540.521,538.8330000000001,0.0
52369.0,STARLINK-3841,PAYLOAD,2023-01-21 00:15:37,15.08851966,0.0001527,53.2163,283.2997,89.9865,270.1302,0.0013055,0.00020557,0.0,0 STARLINK-3841,1 52369U 22045AQ  23021.01085621  .00020557  00000-0  13055-2 0  9994,2 52369  53.2163 283.2997 0001527  89.9865 270.1302 15.08851966 43266,6917.844,95.437,540.765,538.6519999999999,0.0
52369.0,STARLINK-3841,PAYLOAD,2023-01-21 09:47:57,15.08838655,0.0001569,53.216,281.5152,91.3924,268.7247,0.00050381,7.739e-05,0.0,0 STARLINK-3841,1 52369U 22045AQ  23021.40830009  .00007739  00000-0  50381-3 0  9996,2 52369  53.2160 281.5152 0001569  91.3924 268.7247 15.08838655 43324,6917.885,95.438,540.835,538.664,0.0
52369.0,STARLINK-3841,PAYLOAD,2023-01-23 03:07:58,15.08878354,0.0001252,53.2162,273.7851,89.5014,270.6122,0.0014475,0.00022848,0.0,0 STARLINK-3841,1 52369U 22045AQ  23023.13054094  .00022848  00000-0  14475-2 0  9991,2 52369  53.2162 273.7851 0001252  89.5014 270.6122 15.08878354 43585,6917.763000000001,95.435,540.494,538.762,0.0
52369.0,STARLINK-3841,PAYLOAD,2023-01-23 09:29:31,15.08862785,0.0001992,53.2143,272.5923,74.2607,285.8605,0.00059612,9.218e-05,0.0,0 STARLINK-3841,1 52369U 22045AQ  23023.39550249  .00009218  00000-0  59612-3 0  9991,2 52369  53.2143 272.5923 0001992  74.2607 285.8605 15.08862785 43621,6917.811,95.436,541.054,538.298,0.0
52369.0,STARLINK-3841,PAYLOAD,2023-01-24 02:58:45,15.08861767,0.0001289,53.2148,269.3225,72.3295,287.7837,0.0014904999999999,0.00023527,0.0,0 STARLINK-3841,1 52369U 22045AQ  23024.12413538  .00023527  00000-0  14905-2 0  9996,2 52369  53.2148 269.3225 0001289  72.3295 287.7837 15.08861767 43735,6917.814,95.436,540.571,538.7869999999999,0.0
52369.0,STARLINK-3841,PAYLOAD,2023-01-24 20:27:59,15.08850351,0.000133,53.2149,266.0536,114.5223,245.5907,0.0012029,0.00018913,0.0,0 STARLINK-3841,1 52369U 22045AQ  23024.85277536  .00018913  00000-0  12029-2 0  9990,2 52369  53.2149 266.0536 0001330 114.5223 245.5907 15.08850351 43841,6917.849,95.437,540.634,538.794,0.0
52369.0,STARLINK-3841,PAYLOAD,2023-01-25 09:11:05,15.08835807,0.0001337,53.2144,263.6726,80.5218,279.5925,0.0012485999999999,0.00019637,0.0,0 STARLINK-3841,1 52369U 22045AQ  23025.38269828  .00019637  00000-0  12486-2 0  9995,2 52369  53.2144 263.6726 0001337  80.5218 279.5925 15.08835807 43928,6917.893,95.438,540.683,538.8330000000001,0.0
52369.0,STARLINK-3841,PAYLOAD,2023-01-26 01:04:56,15.0883514,0.0001255,53.2148,260.6966,88.3779,271.7356,0.00059571,9.204e-05,0.0,0 STARLINK-3841,1 52369U 22045AQ  23026.04510043  .00009204  00000-0  59571-3 0  9993,2 52369  53.2148 260.6966 0001255  88.3779 271.7356 15.08835140 44026,6917.895,95.438,540.628,538.8919999999999,0.0
52369.0,STARLINK-3841,PAYLOAD,2023-01-27 00:55:43,15.08847225,0.0001385999999999,53.2154,256.2355,89.4612,270.6539,0.00051076,7.852e-05,0.0,0 STARLINK-3841,1 52369U 22045AQ  23027.03869878  .00007852  00000-0  51076-3 0  9995,2 52369  53.2154 256.2355 0001386  89.4612 270.6539 15.08847225 44173,6917.858,95.437,540.682,538.764,0.0
52369.0,STARLINK-3841,PAYLOAD,2023-01-27 18:24:58,15.08841381,0.0001365,53.2152,252.9635,89.4498,270.665,0.00011793,1.589e-05,0.0,0 STARLINK-3841,1 52369U 22045AQ  23027.76733909  .00001589  00000-0  11793-3 0  9993,2 52369  53.2152 252.9635 0001365  89.4498 270.6650 15.08841381 44287,6917.876,95.437,540.685,538.797,0.0
52369.0,STARLINK-3841,PAYLOAD,2023-01-27 21:35:44,15.08841912,0.0001334,53.2151,252.3691,87.7611,272.3534,0.0001183,1.595e-05,0.0,0 STARLINK-3841,1 52369U 22045AQ  23027.89981879  .00001595  00000-0  11830-3 0  9997,2 52369  53.2151 252.3691 0001334  87.7611 272.3534 15.08841912 44309,6917.875,95.437,540.6619999999999,538.817,0.0
52369.0,STARLINK-3841,PAYLOAD,2023-01-28 02:21:53,15.08844437,0.0001232,53.2152,251.478,85.7103,274.403,0.00013955,1.934e-05,0.0,0 STARLINK-3841,1 52369U 22045AQ  23028.09853782  .00001934  00000-0  13955-3 0  9998,2 52369  53.2152 251.4780 0001232  85.7103 274.4030 15.08844437 44332,6917.867,95.437,540.584,538.88,0.0
52369.0,STARLINK-3841,PAYLOAD,2023-01-28 21:26:31,15.08843821,0.0001175,53.2149,247.9114,86.3674,273.7453,3.5755e-05,2.81e-06,0.0,0 STARLINK-3841,1 52369U 22045AQ  23028.89341646  .00000281  00000-0  35755-4 0  9994,2 52369  53.2149 247.9114 0001175  86.3674 273.7453 15.08843821 44455,6917.869,95.437,540.547,538.921,0.0
52369.0,STARLINK-3841,PAYLOAD,2023-01-29 21:17:18,15.08835973,0.0001283,53.2152,243.4512,90.9528,269.1611,2.5431e-05,1.17e-06,0.0,0 STARLINK-3841,1 52369U 22045AQ  23029.88702387  .00000117  00000-0  25431-4 0  9995,2 52369  53.2152 243.4512 0001283  90.9528 269.1611 15.08835973 44602,6917.893,95.438,540.645,538.87,0.0
